[{"OBJECT_NAME":"CUBEL","OBJECT_ID":"2021-006AM","EPOCH":"2026-03-09T08:50:18.723264","MEAN_MOTION":15.39239773,"ECCENTRICITY":0.00073561,"INCLINATION":97.2474,"RA_OF_ASC_NODE":119.9764,"ARG_OF_PERICENTER":160.7871,"MEAN_ANOMALY":199.3654,"EPHEMERIS_TYPE":0,"CLASSIFICATION_TYPE":"U","NORAD_CAT_ID":47448,"ELEMENT_SET_NO":999,"REV_AT_EPOCH":28439,"BSTAR":0.00027955436,"MEAN_MOTION_DOT":0.0001081,"MEAN_MOTION_DDOT":0},{"OBJECT_NAME":"DEIMOS","OBJECT_ID":"2024-149BL","EPOCH":"2026-03-09T18:15:22.104864","MEAN_MOTION":15.40482219,"ECCENTRICITY":0.00045078,"INCLINATION":97.3812,"RA_OF_ASC_NODE":153.6981,"ARG_OF_PERICENTER":283.7118,"MEAN_ANOMALY":76.3626,"EPHEMERIS_TYPE":0,"CLASSIFICATION_TYPE":"U","NORAD_CAT_ID":60526,"ELEMENT_SET_NO":999,"REV_AT_EPOCH":8712,"BSTAR":0.0005120241,"MEAN_MOTION_DOT":0.00020707,"MEAN_MOTION_DDOT":0}]
