CUBEL                   
1 47448U 21006AM  26068.36827226  .00010810  00000+0  27955-3 0  9994
2 47448  97.2474 119.9764 0007356 160.7871 199.3654 15.39239773284392
DEIMOS                  
1 60526U 24149BL  26068.76067251  .00020707  00000+0  51202-3 0  9993
2 60526  97.3812 153.6981 0004508 283.7118  76.3626 15.40482219 87125
